[{"spaceTrack":{"CCSDS_OMM_VERS":"2.0","COMMENT":"GENERATED VIA SPACE-TRACK.ORG API","CREATION_DATE":"2021-05-12T14:56:11","ORIGINATOR":"18 SPCS","OBJECT_NAME":"STARLINK-2271","OBJECT_ID":"2021-024AH","CENTER_NAME":"EARTH","REF_FRAME":"TEME","TIME_SYSTEM":"UTC","MEAN_ELEMENT_THEORY":"SGP4","EPOCH":"2021-05-12T14:00:01.000224","MEAN_MOTION":15.73194812,"ECCENTRICITY":0.0001109,"INCLINATION":53.0491,"RA_OF_ASC_NODE":319.6276,"ARG_OF_PERICENTER":85.977,"MEAN_ANOMALY":197.6608,"EPHEMERIS_TYPE":0,"CLASSIFICATION_TYPE":"U","NORAD_CAT_ID":48008,"ELEMENT_SET_NO":999,"REV_AT_EPOCH":854,"BSTAR":0.000073454,"MEAN_MOTION_DOT":0.000097,"MEAN_MOTION_DDOT":0,"SEMIMAJOR_AXIS":6727.91,"PERIOD":91.533,"APOAPSIS":350.521,"PERIAPSIS":349.029,"OBJECT_TYPE":"PAYLOAD","RCS_SIZE":"LARGE","COUNTRY_CODE":"US","LAUNCH_DATE":"2021-03-24","SITE":"AFETR","DECAY_DATE":null,"DECAYED":0,"FILE":3035576,"GP_ID":177115146,"TLE_LINE0":"0 STARLINK-2271","TLE_LINE1":"1 48008U 21024AH  21132.58334491  .00009700  00000-0  73454-4 0  9998","TLE_LINE2":"2 48008  53.0491 319.6276 0001109  85.9770 197.6608 15.73194812  8540"},"version":"v1.0","launch":"60428aafc041c16716f73cd7","longitude":110.58001802126901,"latitude":-48.67860960307635,"height_km":367.12130534576227,"velocity_kms":7.688470780382916,"id":"6064dd0db8f62f00065775df"},{"spaceTrack":{"CCSDS_OMM_VERS":"2.0","COMMENT":"GENERATED VIA SPACE-TRACK.ORG API","CREATION_DATE":"2021-05-12T14:56:11","ORIGINATOR":"18 SPCS","OBJECT_NAME":"STARLINK-2313","OBJECT_ID":"2021-024K","CENTER_NAME":"EARTH","REF_FRAME":"TEME","TIME_SYSTEM":"UTC","MEAN_ELEMENT_THEORY":"SGP4","EPOCH":"2021-05-12T14:00:01.000224","MEAN_MOTION":15.72644032,"ECCENTRICITY":0.0001138,"INCLINATION":53.0338,"RA_OF_ASC_NODE":314.3211,"ARG_OF_PERICENTER":91.1119,"MEAN_ANOMALY":215.432,"EPHEMERIS_TYPE":0,"CLASSIFICATION_TYPE":"U","NORAD_CAT_ID":47986,"ELEMENT_SET_NO":999,"REV_AT_EPOCH":889,"BSTAR":0.00064233,"MEAN_MOTION_DOT":0.00088365,"MEAN_MOTION_DDOT":0,"SEMIMAJOR_AXIS":6729.481,"PERIOD":91.566,"APOAPSIS":352.112,"PERIAPSIS":350.58,"OBJECT_TYPE":"PAYLOAD","RCS_SIZE":"LARGE","COUNTRY_CODE":"US","LAUNCH_DATE":"2021-03-24","SITE":"AFETR","DECAY_DATE":null,"DECAYED":0,"FILE":3035571,"GP_ID":177115581,"TLE_LINE0":"0 STARLINK-2313","TLE_LINE1":"1 47986U 21024K   21132.58334491  .00088365  00000-0  64233-3 0  9990","TLE_LINE2":"2 47986  53.0338 314.3211 0001138  91.1119 215.4320 15.72644032  8894"},"version":"v1.0","launch":"60428aafc041c16716f73cd7","longitude":130.66801416776886,"latitude":-35.97118361603398,"height_km":363.3088563402407,"velocity_kms":7.690786617845529,"id":"6064dd0d68068f00062d1aa6"},{"spaceTrack":{"CCSDS_OMM_VERS":"2.0","COMMENT":"GENERATED VIA SPACE-TRACK.ORG API","CREATION_DATE":"2021-05-12T14:56:11","ORIGINATOR":"18 SPCS","OBJECT_NAME":"STARLINK-2260","OBJECT_ID":"2021-024V","CENTER_NAME":"EARTH","REF_FRAME":"TEME","TIME_SYSTEM":"UTC","MEAN_ELEMENT_THEORY":"SGP4","EPOCH":"2021-05-12T14:00:01.000224","MEAN_MOTION":15.73167839,"ECCENTRICITY":0.0000955,"INCLINATION":53.0493,"RA_OF_ASC_NODE":319.646,"ARG_OF_PERICENTER":90.1539,"MEAN_ANOMALY":185.9071,"EPHEMERIS_TYPE":0,"CLASSIFICATION_TYPE":"U","NORAD_CAT_ID":47996,"ELEMENT_SET_NO":999,"REV_AT_EPOCH":854,"BSTAR":0.000082879,"MEAN_MOTION_DOT":0.00011013,"MEAN_MOTION_DDOT":0,"SEMIMAJOR_AXIS":6727.987,"PERIOD":91.535,"APOAPSIS":350.494,"PERIAPSIS":349.209,"OBJECT_TYPE":"PAYLOAD","RCS_SIZE":"LARGE","COUNTRY_CODE":"US","LAUNCH_DATE":"2021-03-24","SITE":"AFETR","DECAY_DATE":null,"DECAYED":0,"FILE":3035574,"GP_ID":177115123,"TLE_LINE0":"0 STARLINK-2260","TLE_LINE1":"1 47996U 21024V   21132.58334491  .00011013  00000-0  82879-4 0  9994","TLE_LINE2":"2 47996  53.0493 319.6460 0000955  90.1539 185.9071 15.73167839  8544"},"version":"v1.0","launch":"60428aafc041c16716f73cd7","longitude":157.25867074988093,"latitude":-48.46578539746556,"height_km":367.0390686723222,"velocity_kms":7.688564130240598,"id":"6064dd0eb8f62f0006577615"},{"spaceTrack":{"CCSDS_OMM_VERS":"2.0","COMMENT":"GENERATED VIA SPACE-TRACK.ORG API","CREATION_DATE":"2021-05-12T14:56:11","ORIGINATOR":"18 SPCS","OBJECT_NAME":"STARLINK-2273","OBJECT_ID":"2021-024S","CENTER_NAME":"EARTH","REF_FRAME":"TEME","TIME_SYSTEM":"UTC","MEAN_ELEMENT_THEORY":"SGP4","EPOCH":"2021-05-12T14:00:01.000224","MEAN_MOTION":15.73211954,"ECCENTRICITY":0.0000902,"INCLINATION":53.0492,"RA_OF_ASC_NODE":319.6495,"ARG_OF_PERICENTER":98.7691,"MEAN_ANOMALY":175.3601,"EPHEMERIS_TYPE":0,"CLASSIFICATION_TYPE":"U","NORAD_CAT_ID":47993,"ELEMENT_SET_NO":999,"REV_AT_EPOCH":854,"BSTAR":0.000035235,"MEAN_MOTION_DOT":0.00004331,"MEAN_MOTION_DDOT":0,"SEMIMAJOR_AXIS":6727.861,"PERIOD":91.532,"APOAPSIS":350.333,"PERIAPSIS":349.119,"OBJECT_TYPE":"PAYLOAD","RCS_SIZE":"LARGE","COUNTRY_CODE":"US","LAUNCH_DATE":"2021-03-24","SITE":"AFETR","DECAY_DATE":null,"DECAYED":0,"FILE":3035572,"GP_ID":177115602,"TLE_LINE0":"0 STARLINK-2273","TLE_LINE1":"1 47993U 21024S   21132.58334491  .00004331  00000-0  35235-4 0  9990","TLE_LINE2":"2 47993  53.0492 319.6495 0000902  98.7691 175.3601 15.73211954  8543"},"version":"v1.0","launch":"60428aafc041c16716f73cd7","longitude":96.67293436723436,"latitude":-51.850784056905,"height_km":368.2546747822171,"velocity_kms":7.687869890316982,"id":"6064dd0e68068f00062d1ad4"},{"spaceTrack":{"CCSDS_OMM_VERS":"2.0","COMMENT":"GENERATED VIA SPACE-TRACK.ORG API","CREATION_DATE":"2021-05-11T22:36:10","ORIGINATOR":"18 SPCS","OBJECT_NAME":"STARLINK-2307","OBJECT_ID":"2021-024P","CENTER_NAME":"EARTH","REF_FRAME":"TEME","TIME_SYSTEM":"UTC","MEAN_ELEMENT_THEORY":"SGP4","EPOCH":"2021-05-11T22:00:00.999936","MEAN_MOTION":15.73211127,"ECCENTRICITY":0.0001147,"INCLINATION":53.049,"RA_OF_ASC_NODE":322.968,"ARG_OF_PERICENTER":74.5777,"MEAN_ANOMALY":19.7416,"EPHEMERIS_TYPE":0,"CLASSIFICATION_TYPE":"U","NORAD_CAT_ID":47990,"ELEMENT_SET_NO":999,"REV_AT_EPOCH":843,"BSTAR":-0.000065723,"MEAN_MOTION_DOT":-0.00009839,"MEAN_MOTION_DDOT":0,"SEMIMAJOR_AXIS":6727.863,"PERIOD":91.533,"APOAPSIS":350.5,"PERIAPSIS":348.957,"OBJECT_TYPE":"PAYLOAD","RCS_SIZE":"LARGE","COUNTRY_CODE":"US","LAUNCH_DATE":"2021-03-24","SITE":"AFETR","DECAY_DATE":null,"DECAYED":0,"FILE":3035014,"GP_ID":177080712,"TLE_LINE0":"0 STARLINK-2307","TLE_LINE1":"1 47990U 21024P   21131.91667824 -.00009839  00000-0 -65723-4 0  9997","TLE_LINE2":"2 47990  53.0490 322.9680 0001147  74.5777  19.7416 15.73211127  8435"},"version":"v1.0","launch":"60428aafc041c16716f73cd7","longitude":93.65709438991976,"latitude":-52.27805603020359,"height_km":368.58498157578833,"velocity_kms":7.6876183606209425,"id":"6064dd0e68068f00062d1ae6"},{"spaceTrack":{"CCSDS_OMM_VERS":"2.0","COMMENT":"GENERATED VIA SPACE-TRACK.ORG API","CREATION_DATE":"2021-05-12T14:56:11","ORIGINATOR":"18 SPCS","OBJECT_NAME":"STARLINK-2218","OBJECT_ID":"2021-024Y","CENTER_NAME":"EARTH","REF_FRAME":"TEME","TIME_SYSTEM":"UTC","MEAN_ELEMENT_THEORY":"SGP4","EPOCH":"2021-05-12T14:00:01.000224","MEAN_MOTION":15.73217339,"ECCENTRICITY":0.0000891,"INCLINATION":53.0492,"RA_OF_ASC_NODE":319.6404,"ARG_OF_PERICENTER":91.6801,"MEAN_ANOMALY":186.2805,"EPHEMERIS_TYPE":0,"CLASSIFICATION_TYPE":"U","NORAD_CAT_ID":47999,"ELEMENT_SET_NO":999,"REV_AT_EPOCH":854,"BSTAR":-0.00019995,"MEAN_MOTION_DOT":-0.00028611,"MEAN_MOTION_DDOT":0,"SEMIMAJOR_AXIS":6727.846,"PERIOD":91.532,"APOAPSIS":350.31,"PERIAPSIS":349.111,"OBJECT_TYPE":"PAYLOAD","RCS_SIZE":"LARGE","COUNTRY_CODE":"US","LAUNCH_DATE":"2021-03-24","SITE":"AFETR","DECAY_DATE":null,"DECAYED":0,"FILE":3035621,"GP_ID":177116604,"TLE_LINE0":"0 STARLINK-2218","TLE_LINE1":"1 47999U 21024Y   21132.58334491 -.00028611  00000-0 -19995-3 0  9999","TLE_LINE2":"2 47999  53.0492 319.6404 0000891  91.6801 186.2805 15.73217339  8541"},"version":"v1.0","launch":"60428aafc041c16716f73cd7","longitude":159.7859933904911,"latitude":-47.62737816716568,"height_km":366.5337254578826,"velocity_kms":7.688877177006073,"id":"6064dd0e68068f00062d1b2e"},{"spaceTrack":{"CCSDS_OMM_VERS":"2.0","COMMENT":"GENERATED VIA SPACE-TRACK.ORG API","CREATION_DATE":"2021-05-12T14:46:11","ORIGINATOR":"18 SPCS","OBJECT_NAME":"STARLINK-2443","OBJECT_ID":"2021-027R","CENTER_NAME":"EARTH","REF_FRAME":"TEME","TIME_SYSTEM":"UTC","MEAN_ELEMENT_THEORY":"SGP4","EPOCH":"2021-05-12T14:00:01.000224","MEAN_MOTION":15.73160367,"ECCENTRICITY":0.0002593,"INCLINATION":53.0465,"RA_OF_ASC_NODE":166.931,"ARG_OF_PERICENTER":10.5587,"MEAN_ANOMALY":174.9672,"EPHEMERIS_TYPE":0,"CLASSIFICATION_TYPE":"U","NORAD_CAT_ID":48107,"ELEMENT_SET_NO":999,"REV_AT_EPOCH":635,"BSTAR":0.000077924,"MEAN_MOTION_DOT":0.00010312,"MEAN_MOTION_DDOT":0,"SEMIMAJOR_AXIS":6728.008,"PERIOD":91.535,"APOAPSIS":351.618,"PERIAPSIS":348.129,"OBJECT_TYPE":"PAYLOAD","RCS_SIZE":"LARGE","COUNTRY_CODE":"US","LAUNCH_DATE":"2021-04-07","SITE":"AFETR","DECAY_DATE":null,"DECAYED":0,"FILE":3035502,"GP_ID":177113904,"TLE_LINE0":"0 STARLINK-2443","TLE_LINE1":"1 48107U 21027R   21132.58334491  .00010312  00000-0  77924-4 0  9998","TLE_LINE2":"2 48107  53.0465 166.9310 0002593  10.5587 174.9672 15.73160367  6355"},"version":"v1.0","launch":"60428ac4c041c16716f73cd8","longitude":-156.288794760569,"latitude":-9.938122525871135,"height_km":354.32092255414136,"velocity_kms":7.69611335252843,"id":"607735e85fc4940006706821"}]